STARLINK-36629          
1 67596U 26018H   26038.83336806 -.01743121  00000+0 -70061-2 0  9992
2 67596  97.2792 103.0786 0001468  84.5895 215.6701 15.89241963  2545
STARLINK-36384          
1 67597U 26018J   26038.83336806 -.01981394  10440-2 -69108-2 0  9991
2 67597  97.2790 103.0804 0001471  89.0059 215.6522 15.89459462  2604
STARLINK-36358          
1 67598U 26018K   26038.83336806 -.01979129  10432-2 -68540-2 0  9995
2 67598  97.2787 103.0813 0001412  89.4698 218.2638 15.89601666  2599
STARLINK-36582          
1 67599U 26018L   26038.83336806 -.01970416  10370-2 -67454-2 0  9990
2 67599  97.2787 103.0837 0001398  80.7612 231.6821 15.89831696  2657
STARLINK-36640          
1 67600U 26018M   26038.83336806 -.01966294  10370-2 -66009-2 0  9997
2 67600  97.2783 103.0870 0001445  78.0717 242.3371 15.90220752  2557
STARLINK-36635          
1 67601U 26018N   26038.83336806 -.01987151  10554-2 -67436-2 0  9992
2 67601  97.2784 103.0850 0001491  82.7232 233.2338 15.90007684  2551
STARLINK-36631          
1 67602U 26018P   26038.83336806 -.01978230  10514-2 -65609-2 0  9997
2 67602  97.2779 103.0889 0001428  83.6313 241.5316 15.90463041  2548
STARLINK-36626          
1 67603U 26018Q   26038.83336806 -.01952294  10317-2 -62858-2 0  9994
2 67603  97.2772 103.0937 0001352  89.1851 248.0352 15.91045876  2545
STARLINK-36605          
1 67604U 26018R   26038.83336806 -.01950801  10286-2 -63307-2 0  9992
2 67604  97.2770 103.0918 0001389  86.2767 247.7262 15.90890125  2547
STARLINK-36281          
1 67605U 26018S   26038.83336806 -.01941439  10172-2 -63666-2 0  9992
2 67605  97.2772 103.0902 0001368  85.4370 244.4860 15.90682532  2595
STARLINK-35843          
1 67606U 26018T   26038.83336806 -.01948864  10302-2 -62176-2 0  9992
2 67606  97.2766 103.0948 0001451  72.3497 268.6217 15.91225282  2609
STARLINK-36351          
1 67607U 26018U   26038.83336806 -.01959762  10428-2 -61999-2 0  9993
2 67607  97.2768 103.0967 0001326  86.1833 258.0971 15.91392345  2606
