CCSDS_OMM_VERS = 2.0
CREATION_DATE  = 
ORIGINATOR     = 

OBJECT_NAME    = STARLINK-36629
OBJECT_ID      = 2026-018H
CENTER_NAME    = EARTH
REF_FRAME      = TEME
TIME_SYSTEM    = UTC
MEAN_ELEMENT_THEORY = SGP/SGP4

EPOCH          = 2026-02-07T20:00:03.000384
MEAN_MOTION    = 15.89241963
ECCENTRICITY   = .0001468
INCLINATION    = 97.2792
RA_OF_ASC_NODE = 103.0786
ARG_OF_PERICENTER = 84.5895
MEAN_ANOMALY   = 215.6701

EPHEMERIS_TYPE = 0
CLASSIFICATION_TYPE = U
NORAD_CAT_ID   = 67596
ELEMENT_SET_NO = 999
REV_AT_EPOCH   = 254
BSTAR          = -.70061E-2
MEAN_MOTION_DOT = -.1743121E-1
MEAN_MOTION_DDOT = 0

CCSDS_OMM_VERS = 2.0
CREATION_DATE  = 
ORIGINATOR     = 

OBJECT_NAME    = STARLINK-36384
OBJECT_ID      = 2026-018J
CENTER_NAME    = EARTH
REF_FRAME      = TEME
TIME_SYSTEM    = UTC
MEAN_ELEMENT_THEORY = SGP/SGP4

EPOCH          = 2026-02-07T20:00:03.000384
MEAN_MOTION    = 15.89459462
ECCENTRICITY   = .0001471
INCLINATION    = 97.2790
RA_OF_ASC_NODE = 103.0804
ARG_OF_PERICENTER = 89.0059
MEAN_ANOMALY   = 215.6522

EPHEMERIS_TYPE = 0
CLASSIFICATION_TYPE = U
NORAD_CAT_ID   = 67597
ELEMENT_SET_NO = 999
REV_AT_EPOCH   = 260
BSTAR          = -.69108E-2
MEAN_MOTION_DOT = -.1981394E-1
MEAN_MOTION_DDOT = .1044E-2

CCSDS_OMM_VERS = 2.0
CREATION_DATE  = 
ORIGINATOR     = 

OBJECT_NAME    = STARLINK-36358
OBJECT_ID      = 2026-018K
CENTER_NAME    = EARTH
REF_FRAME      = TEME
TIME_SYSTEM    = UTC
MEAN_ELEMENT_THEORY = SGP/SGP4

EPOCH          = 2026-02-07T20:00:03.000384
MEAN_MOTION    = 15.89601666
ECCENTRICITY   = .0001412
INCLINATION    = 97.2787
RA_OF_ASC_NODE = 103.0813
ARG_OF_PERICENTER = 89.4698
MEAN_ANOMALY   = 218.2638

EPHEMERIS_TYPE = 0
CLASSIFICATION_TYPE = U
NORAD_CAT_ID   = 67598
ELEMENT_SET_NO = 999
REV_AT_EPOCH   = 259
BSTAR          = -.6854E-2
MEAN_MOTION_DOT = -.1979129E-1
MEAN_MOTION_DDOT = .10432E-2

CCSDS_OMM_VERS = 2.0
CREATION_DATE  = 
ORIGINATOR     = 

OBJECT_NAME    = STARLINK-36582
OBJECT_ID      = 2026-018L
CENTER_NAME    = EARTH
REF_FRAME      = TEME
TIME_SYSTEM    = UTC
MEAN_ELEMENT_THEORY = SGP/SGP4

EPOCH          = 2026-02-07T20:00:03.000384
MEAN_MOTION    = 15.89831696
ECCENTRICITY   = .0001398
INCLINATION    = 97.2787
RA_OF_ASC_NODE = 103.0837
ARG_OF_PERICENTER = 80.7612
MEAN_ANOMALY   = 231.6821

EPHEMERIS_TYPE = 0
CLASSIFICATION_TYPE = U
NORAD_CAT_ID   = 67599
ELEMENT_SET_NO = 999
REV_AT_EPOCH   = 265
BSTAR          = -.67454E-2
MEAN_MOTION_DOT = -.1970416E-1
MEAN_MOTION_DDOT = .1037E-2

CCSDS_OMM_VERS = 2.0
CREATION_DATE  = 
ORIGINATOR     = 

OBJECT_NAME    = STARLINK-36640
OBJECT_ID      = 2026-018M
CENTER_NAME    = EARTH
REF_FRAME      = TEME
TIME_SYSTEM    = UTC
MEAN_ELEMENT_THEORY = SGP/SGP4

EPOCH          = 2026-02-07T20:00:03.000384
MEAN_MOTION    = 15.90220752
ECCENTRICITY   = .0001445
INCLINATION    = 97.2783
RA_OF_ASC_NODE = 103.0870
ARG_OF_PERICENTER = 78.0717
MEAN_ANOMALY   = 242.3371

EPHEMERIS_TYPE = 0
CLASSIFICATION_TYPE = U
NORAD_CAT_ID   = 67600
ELEMENT_SET_NO = 999
REV_AT_EPOCH   = 255
BSTAR          = -.66009E-2
MEAN_MOTION_DOT = -.1966294E-1
MEAN_MOTION_DDOT = .1037E-2

CCSDS_OMM_VERS = 2.0
CREATION_DATE  = 
ORIGINATOR     = 

OBJECT_NAME    = STARLINK-36635
OBJECT_ID      = 2026-018N
CENTER_NAME    = EARTH
REF_FRAME      = TEME
TIME_SYSTEM    = UTC
MEAN_ELEMENT_THEORY = SGP/SGP4

EPOCH          = 2026-02-07T20:00:03.000384
MEAN_MOTION    = 15.90007684
ECCENTRICITY   = .0001491
INCLINATION    = 97.2784
RA_OF_ASC_NODE = 103.0850
ARG_OF_PERICENTER = 82.7232
MEAN_ANOMALY   = 233.2338

EPHEMERIS_TYPE = 0
CLASSIFICATION_TYPE = U
NORAD_CAT_ID   = 67601
ELEMENT_SET_NO = 999
REV_AT_EPOCH   = 255
BSTAR          = -.67436E-2
MEAN_MOTION_DOT = -.1987151E-1
MEAN_MOTION_DDOT = .10554E-2

CCSDS_OMM_VERS = 2.0
CREATION_DATE  = 
ORIGINATOR     = 

OBJECT_NAME    = STARLINK-36631
OBJECT_ID      = 2026-018P
CENTER_NAME    = EARTH
REF_FRAME      = TEME
TIME_SYSTEM    = UTC
MEAN_ELEMENT_THEORY = SGP/SGP4

EPOCH          = 2026-02-07T20:00:03.000384
MEAN_MOTION    = 15.90463041
ECCENTRICITY   = .0001428
INCLINATION    = 97.2779
RA_OF_ASC_NODE = 103.0889
ARG_OF_PERICENTER = 83.6313
MEAN_ANOMALY   = 241.5316

EPHEMERIS_TYPE = 0
CLASSIFICATION_TYPE = U
NORAD_CAT_ID   = 67602
ELEMENT_SET_NO = 999
REV_AT_EPOCH   = 254
BSTAR          = -.65609E-2
MEAN_MOTION_DOT = -.197823E-1
MEAN_MOTION_DDOT = .10514E-2

CCSDS_OMM_VERS = 2.0
CREATION_DATE  = 
ORIGINATOR     = 

OBJECT_NAME    = STARLINK-36626
OBJECT_ID      = 2026-018Q
CENTER_NAME    = EARTH
REF_FRAME      = TEME
TIME_SYSTEM    = UTC
MEAN_ELEMENT_THEORY = SGP/SGP4

EPOCH          = 2026-02-07T20:00:03.000384
MEAN_MOTION    = 15.91045876
ECCENTRICITY   = .0001352
INCLINATION    = 97.2772
RA_OF_ASC_NODE = 103.0937
ARG_OF_PERICENTER = 89.1851
MEAN_ANOMALY   = 248.0352

EPHEMERIS_TYPE = 0
CLASSIFICATION_TYPE = U
NORAD_CAT_ID   = 67603
ELEMENT_SET_NO = 999
REV_AT_EPOCH   = 254
BSTAR          = -.62858E-2
MEAN_MOTION_DOT = -.1952294E-1
MEAN_MOTION_DDOT = .10317E-2

CCSDS_OMM_VERS = 2.0
CREATION_DATE  = 
ORIGINATOR     = 

OBJECT_NAME    = STARLINK-36605
OBJECT_ID      = 2026-018R
CENTER_NAME    = EARTH
REF_FRAME      = TEME
TIME_SYSTEM    = UTC
MEAN_ELEMENT_THEORY = SGP/SGP4

EPOCH          = 2026-02-07T20:00:03.000384
MEAN_MOTION    = 15.90890125
ECCENTRICITY   = .0001389
INCLINATION    = 97.2770
RA_OF_ASC_NODE = 103.0918
ARG_OF_PERICENTER = 86.2767
MEAN_ANOMALY   = 247.7262

EPHEMERIS_TYPE = 0
CLASSIFICATION_TYPE = U
NORAD_CAT_ID   = 67604
ELEMENT_SET_NO = 999
REV_AT_EPOCH   = 254
BSTAR          = -.63307E-2
MEAN_MOTION_DOT = -.1950801E-1
MEAN_MOTION_DDOT = .10286E-2

CCSDS_OMM_VERS = 2.0
CREATION_DATE  = 
ORIGINATOR     = 

OBJECT_NAME    = STARLINK-36281
OBJECT_ID      = 2026-018S
CENTER_NAME    = EARTH
REF_FRAME      = TEME
TIME_SYSTEM    = UTC
MEAN_ELEMENT_THEORY = SGP/SGP4

EPOCH          = 2026-02-07T20:00:03.000384
MEAN_MOTION    = 15.90682532
ECCENTRICITY   = .0001368
INCLINATION    = 97.2772
RA_OF_ASC_NODE = 103.0902
ARG_OF_PERICENTER = 85.4370
MEAN_ANOMALY   = 244.4860

EPHEMERIS_TYPE = 0
CLASSIFICATION_TYPE = U
NORAD_CAT_ID   = 67605
ELEMENT_SET_NO = 999
REV_AT_EPOCH   = 259
BSTAR          = -.63666E-2
MEAN_MOTION_DOT = -.1941439E-1
MEAN_MOTION_DDOT = .10172E-2

CCSDS_OMM_VERS = 2.0
CREATION_DATE  = 
ORIGINATOR     = 

OBJECT_NAME    = STARLINK-35843
OBJECT_ID      = 2026-018T
CENTER_NAME    = EARTH
REF_FRAME      = TEME
TIME_SYSTEM    = UTC
MEAN_ELEMENT_THEORY = SGP/SGP4

EPOCH          = 2026-02-07T20:00:03.000384
MEAN_MOTION    = 15.91225282
ECCENTRICITY   = .0001451
INCLINATION    = 97.2766
RA_OF_ASC_NODE = 103.0948
ARG_OF_PERICENTER = 72.3497
MEAN_ANOMALY   = 268.6217

EPHEMERIS_TYPE = 0
CLASSIFICATION_TYPE = U
NORAD_CAT_ID   = 67606
ELEMENT_SET_NO = 999
REV_AT_EPOCH   = 260
BSTAR          = -.62176E-2
MEAN_MOTION_DOT = -.1948864E-1
MEAN_MOTION_DDOT = .10302E-2

CCSDS_OMM_VERS = 2.0
CREATION_DATE  = 
ORIGINATOR     = 

OBJECT_NAME    = STARLINK-36351
OBJECT_ID      = 2026-018U
CENTER_NAME    = EARTH
REF_FRAME      = TEME
TIME_SYSTEM    = UTC
MEAN_ELEMENT_THEORY = SGP/SGP4

EPOCH          = 2026-02-07T20:00:03.000384
MEAN_MOTION    = 15.91392345
ECCENTRICITY   = .0001326
INCLINATION    = 97.2768
RA_OF_ASC_NODE = 103.0967
ARG_OF_PERICENTER = 86.1833
MEAN_ANOMALY   = 258.0971

EPHEMERIS_TYPE = 0
CLASSIFICATION_TYPE = U
NORAD_CAT_ID   = 67607
ELEMENT_SET_NO = 999
REV_AT_EPOCH   = 260
BSTAR          = -.61999E-2
MEAN_MOTION_DOT = -.1959762E-1
MEAN_MOTION_DDOT = .10428E-2

